IRIDIUM 156             
1 43576U 18061H   26162.67549060  .00000195  00000+0  62663-4 0  9996
2 43576  86.3962  59.0340 0002109  80.4573 279.6861 14.34216913412584
IRIDIUM 164             
1 43577U 18061J   26162.65646363  .00000072  00000+0  18632-4 0  9990
2 43577  86.3967  59.0824 0002093  88.8767 271.2668 14.34217643412625
IRIDIUM 159             
1 43578U 18061K   26162.69451941  .00000122  00000+0  36502-4 0  9993
2 43578  86.3963  59.0034 0002314  84.4327 275.7133 14.34217298412593
IRIDIUM 180             
1 43922U 19002A   26162.62424632  .00000004  00000+0 -55045-5 0  9996
2 43922  86.3967 355.9237 0002141  89.0468 271.0973 14.34217695388198
IRIDIUM 176             
1 43923U 19002B   26162.58562390  .00000691  00000+0  10567-3 0  9995
2 43923  86.6092 355.8843 0002239  91.6115 268.5359 14.72259705398425
IRIDIUM 168             
1 43924U 19002C   26162.61790469  .00000043  00000+0  82047-5 0  9995
2 43924  86.3974 356.0035 0002172  88.8513 271.2932 14.34217797388176
IRIDIUM 173             
1 43925U 19002D   26162.60521894  .00000005  00000+0 -52121-5 0  9998
2 43925  86.3965 355.8977 0002126  86.6051 273.5388 14.34217084388158
IRIDIUM 169             
1 43926U 19002E   26162.68778061  .00000123  00000+0  33591-4 0  9996
2 43926  86.4230  27.4928 0002044  70.8766 289.2653 14.38606189389433
IRIDIUM 172             
1 43927U 19002F   26162.59887523  .00000175  00000+0  55461-4 0  9998
2 43927  86.3970 355.9086 0002258  89.5000 270.6455 14.34216981388169
IRIDIUM 175             
1 43928U 19002G   26162.45338720  .00000262  00000+0  71507-4 0  9990
2 43928  86.4508 292.9181 0001749 200.8836 159.2294 14.43609548398151
IRIDIUM 171             
1 43929U 19002H   26162.57984719 -.00000279  00000+0 -10664-3 0  9995
2 43929  86.3975 356.2219 0001920  86.0644 274.0771 14.34217083388151
IRIDIUM 170             
1 43930U 19002J   26162.59180642  .00000687  00000+0  10501-3 0  9993
2 43930  86.6090 355.8840 0002364  88.1225 272.0262 14.72260116398432
IRIDIUM 167             
1 43931U 19002K   26162.57350545  .00000053  00000+0  11950-4 0  9990
2 43931  86.3971 355.9413 0001852  87.5306 272.6101 14.34217893388157
IRIDIUM 181             
1 56726U 23068S   26162.69876565  .00000274  00000+0  75393-4 0  9997
2 56726  86.4503  59.0849 0002329  89.7441 270.4027 14.43311762161640
IRIDIUM 177             
1 56727U 23068T   26162.50882649  .00000916  00000+0  11706-3 0  9998
2 56727  86.1959 331.4891 0002413  87.3635 272.7862 14.80219553165529
IRIDIUM 174             
1 56728U 23068U   26162.57945566  .00000710  00000+0  10861-3 0  9997
2 56728  86.6098 356.0361 0002543  84.7822 275.3685 14.72256247165194
IRIDIUM 178             
1 56729U 23068V   26162.63316135  .00000864  00000+0  11028-3 0  9995
2 56729  86.6542  27.6815 0002680  87.4832 272.6696 14.80224307165549
IRIDIUM 179             
1 56730U 23068W   26162.69537507  .00000956  00000+0  12242-3 0  9992
2 56730  86.6781  36.6189 0002402  88.1339 272.0158 14.80236495165551
